0 FENGYUN 1C DEB
1 38508U 99025EST 13285.78571306  .00006038  00000-0  16920-2 0   162
2 38508 098.8045 285.6359 0232090 101.5353 276.3689 14.31771352230282
0 FENGYUN 1C DEB
1 38508U 99025EST 13294.79735652  .00006231  00000-0  17443-2 0   176
2 38508 098.7990 294.7887 0231398 076.1582 286.6542 14.31885756231577
